[{"OBJECT_NAME":"SDA_1668","OBJECT_ID":"2025-230E","EPOCH":"2026-03-09T17:28:24.297600","MEAN_MOTION":13.85494162,"ECCENTRICITY":0.00045481,"INCLINATION":81.3,"RA_OF_ASC_NODE":303.8056,"ARG_OF_PERICENTER":118.5208,"MEAN_ANOMALY":241.6407,"EPHEMERIS_TYPE":0,"CLASSIFICATION_TYPE":"U","NORAD_CAT_ID":65978,"ELEMENT_SET_NO":999,"REV_AT_EPOCH":2005,"BSTAR":0.00023740567,"MEAN_MOTION_DOT":2.83e-6,"MEAN_MOTION_DDOT":0},{"OBJECT_NAME":"SDA_1682","OBJECT_ID":"2025-230U","EPOCH":"2026-03-09T17:20:30.180192","MEAN_MOTION":13.84602017,"ECCENTRICITY":0.00025922,"INCLINATION":81.3027,"RA_OF_ASC_NODE":304.0041,"ARG_OF_PERICENTER":76.4793,"MEAN_ANOMALY":283.6653,"EPHEMERIS_TYPE":0,"CLASSIFICATION_TYPE":"U","NORAD_CAT_ID":65992,"ELEMENT_SET_NO":999,"REV_AT_EPOCH":2004,"BSTAR":-0.02644498,"MEAN_MOTION_DOT":-0.0002955,"MEAN_MOTION_DDOT":0}]
